STARLINK-3536           
1 51888U 22022AN  23123.86972211 -.00001637  00000+0 -84813-4 0  9991
2 51888  53.2160 351.5451 0001021 101.1011 259.0096 15.08837101 66122
STARLINK-3547           
1 51889U 22022AP  23123.91755918 -.00001181  00000+0 -56119-4 0  9993
2 51889  53.2181 351.3277 0001361  90.0565 270.0583 15.08839385 66127
STARLINK-3519           
1 51890U 22022AQ  23123.96452538  .00000484  00000+0  47552-4 0  9996
2 51890  53.2187 350.8453 0001051  77.8275 282.2835 15.09665220 66134
STARLINK-3549           
1 51891U 22022AR  23123.91388501 -.00000154  00000+0  84322-5 0  9992
2 51891  53.2191 351.3383 0001318  80.2345 279.8796 15.08838270 66178
STARLINK-3587           
1 51892U 22022AS  23123.92124429 -.00000021  00000+0  16760-4 0  9994
2 51892  53.2182 351.3075 0001095  80.7576 279.3540 15.08837985 66129
STARLINK-3579           
1 51893U 22022AT  23123.90652451 -.00000617  00000+0 -20673-4 0  9994
2 51893  53.2180 351.3764 0000947  88.4568 271.6533 15.08837393 66180
STARLINK-3595           
1 51894U 22022AU  23123.91019951 -.00000132  00000+0  97547-5 0  9994
2 51894  53.2186 351.3583 0001007  81.8141 278.2965 15.08846585 66183
STARLINK-3594           
1 51895U 22022AV  23123.90284200  .00000357  00000+0  40509-4 0  9998
2 51895  53.2179 351.3940 0001334  84.9825 275.1319 15.08844166 66125
STARLINK-3593           
1 51896U 22022AW  23123.90379809  .00001367  00000+0  10396-3 0  9991
2 51896  53.2173 351.3892 0001152  84.5237 275.5886 15.08845683 66170
STARLINK-3598           
1 51897U 22022AX  23123.96540084  .00001012  00000+0  81634-4 0  9994
2 51897  53.2183 351.1082 0001086 102.4882 257.6232 15.08842586 66134
STARLINK-3597           
1 51898U 22022AY  23123.89548194  .00000860  00000+0  72085-4 0  9997
2 51898  53.2168 351.4271 0001131  95.4001 264.7120 15.08843357 66172
2022-023A               
1 51946U 22023A   23123.64679605  .00042414  00000+0  19351-2 0  9993
2 51946  63.4485 187.4854 0064857 330.8612 111.6999 15.18484494 64540
2022-023B               
1 51947U 22023B   23124.24301767  .00020627  00000+0  94508-3 0  9992
2 51947  63.4440 185.3009 0062567 333.5448 133.5820 15.18768537 64633
2022-023C               
1 51948U 22023C   23124.18106983  .00019393  00000+0  90829-3 0  9999
2 51948  63.4452 185.4089 0057718 336.2831 120.1859 15.18308918 64620
2022-023D               
1 51949U 22023D   23124.18397233  .00021708  00000+0  10168-2 0  9990
2 51949  63.4537 185.6881 0058249 337.8050 119.1002 15.18222421 64629
2022-023E               
1 51950U 22023E   23123.91624175 -.00001843  00000+0 -74677-4 0  9997
2 51950  63.4560 186.4987 0056943 344.4143  71.6057 15.18174207 64584
2022-023F               
1 51951U 22023F   23124.19099863  .00019069  00000+0  89218-3 0  9992
2 51951  63.4578 185.4939 0057295 344.6899 113.8125 15.18374905 64628
2022-023G               
1 51952U 22023G   23124.20696613  .00017357  00000+0  46995-3 0  9994
2 51952  63.4349 167.3431 0067447 347.3761  71.4552 15.35515112 64965
NOOR-2                  
1 51954U 22024A   23124.19283503  .00026477  00000+0  82758-3 0  9995
2 51954  58.2821 240.4943 0019089 131.3382 297.3892 15.32908211 64356
STARLINK-3700           
1 51956U 22025A   23124.08301052  .00000755  00000+0  66866-4 0  9990
2 51956  53.1248  20.6680 0001385 100.1965 259.9182 15.08033402 65184
STARLINK-3694           
1 51957U 22025B   23123.92659146  .00000421  00000+0  48916-4 0  9999
2 51957  53.1293  22.7254 0001319  68.0019 292.1110 15.04773422 64058
STARLINK-3692           
1 51958U 22025C   23124.01291746  .00000992  00000+0  82057-4 0  9996
2 51958  53.1259  20.9796 0001142  98.9344 261.1776 15.08035307 65174
STARLINK-3704           
1 51959U 22025D   23124.13365925 -.00000050  00000+0  15924-4 0  9996
2 51959  53.1275  21.8239 0001650  91.4164 268.7014 15.04780602 65176
STARLINK-3691           
1 51960U 22025E   23124.12572751  .00000774  00000+0  73677-4 0  9995
2 51960  53.1295  21.8578 0001388  85.7703 274.3444 15.04780828 65179
STARLINK-3689           
1 51961U 22025F   23124.14321866  .00002576  00000+0  18367-3 0  9993
2 51961  53.1216  20.4154 0001431  87.2781 272.8373 15.08051455 65210
STARLINK-3697           
1 51962U 22025G   23124.12299464 -.00000899  00000+0 -39331-4 0  9993
2 51962  53.1194  20.4386 0001398  89.3239 270.7912 15.08052138 65211
STARLINK-3675           
1 51963U 22025H   23123.87365576  .00000156  00000+0  28393-4 0  9993
2 51963  53.1244  21.6022 0001228  80.7142 279.3988 15.08034307 64066
STARLINK-3690           
1 51964U 22025J   23124.11475912  .00008109  00000+0  53889-3 0  9991
2 51964  53.1204  20.4974 0001491  89.2345 270.8816 15.08012772 65190
STARLINK-3696           
1 51965U 22025K   23123.92344486  .00000319  00000+0  41765-4 0  9997
2 51965  53.1311  22.7624 0001322  84.1211 275.9929 15.04775659 64057
STARLINK-3699           
1 51966U 22025L   23124.14571670  .00000933  00000+0  83192-4 0  9992
2 51966  53.1219  21.4732 0001260  90.1048 270.0086 15.05590180 65187
STARLINK-3681           
1 51968U 22025N   23124.10402716  .00000823  00000+0  71173-4 0  9998
2 51968  53.1169  20.5501 0001309  85.6781 274.4359 15.08042752 65208
STARLINK-3680           
1 51969U 22025P   23124.07213181  .00001016  00000+0  83619-4 0  9994
2 51969  53.0604  20.3752 0001307 109.6212 250.4919 15.08029956 65209
STARLINK-3677           
1 51970U 22025Q   23123.86947692  .00000001  00000+0  19231-4 0  9995
2 51970  53.1242  22.7091 0001254  92.5629 267.5504 15.05583581 64052
STARLINK-3669           
1 51971U 22025R   23123.91285741  .00002190  00000+0  15892-3 0  9991
2 51971  53.1185  21.4054 0001375  80.2439 279.8706 15.08038972 64075
STARLINK-3671           
1 51972U 22025S   23124.12388721  .00001487  00000+0  12118-3 0  9994
2 51972  53.1286  21.5262 0001448  93.2709 266.8446 15.05596090 65193
STARLINK-3679           
1 51973U 22025T   23123.87303303 -.00000235  00000+0  30364-5 0  9995
2 51973  53.1234  22.6942 0001171  80.8884 279.2237 15.05587209 64055
STARLINK-3672           
1 51974U 22025U   23123.92102114  .00000384  00000+0  45526-4 0  9998
2 51974  53.1300  22.4313 0001263  90.5461 269.5673 15.05592680 64056
STARLINK-3674           
1 51975U 22025V   23124.08583515  .00022020  00000+0  13343-2 0  9996
2 51975  53.1215  19.2158 0001252  85.8065 274.3070 15.10524024 65237
STARLINK-3663           
1 51976U 22025W   23123.92124563 -.00001776  00000+0 -93568-4 0  9999
2 51976  53.2190  31.3114 0000904  93.3977 266.7119 15.08839759 63943
STARLINK-3660           
1 51977U 22025X   23123.92036217 -.00002400  00000+0 -13278-3 0  9992
2 51977  53.2176  11.3237 0001444 108.6729 251.4419 15.08830986 64215
STARLINK-3666           
1 51978U 22025Y   23124.10892067 -.00000615  00000+0 -20537-4 0  9990
2 51978  53.2190  30.4867 0000963  89.7009 270.4093 15.08847563 65059
STARLINK-3656           
1 51979U 22025Z   23123.92492504 -.00000240  00000+0  30224-5 0  9990
2 51979  53.2188  31.2940 0001140  90.5208 269.5914 15.08845699 63942
STARLINK-3649           
1 51980U 22025AA  23124.10156666 -.00000985  00000+0 -43802-4 0  9991
2 51980  53.2195  30.5090 0001282  98.3142 261.7996 15.08838800 65054
STARLINK-3635           
1 51981U 22025AB  23124.05004714 -.00000700  00000+0 -25888-4 0  9991
2 51981  53.2193  30.7359 0001377 107.3071 252.8072 15.08834442 65054
STARLINK-3650           
1 51982U 22025AC  23123.89916220 -.00000926  00000+0 -40104-4 0  9995
2 51982  53.2161  31.4102 0001069  90.2126 269.8988 15.08838388 63935
STARLINK-3655           
1 51983U 22025AD  23124.11260054 -.00000641  00000+0 -22196-4 0  9994
2 51983  53.2187  30.4556 0001123  91.2493 268.8628 15.08843693 65088
STARLINK-3664           
1 51984U 22025AE  23123.47964335  .00000096  00000+0  24110-4 0  9996
2 51984  53.2183  33.2901 0001033  86.2055 273.9055 15.08837343 64971
STARLINK-3651           
1 51985U 22025AF  23123.90747761 -.00000673  00000+0 -24212-4 0  9993
2 51985  53.2187  31.3784 0001200  99.2069 260.9059 15.08833301 63934
STARLINK-3645           
1 51986U 22025AG  23124.05689524 -.00000253  00000+0  23934-5 0  9997
2 51986  53.2195  30.5811 0001371  92.3586 267.7564 15.10470850 65053
STARLINK-3644           
1 51987U 22025AH  23123.88443890 -.00000092  00000+0  12307-4 0  9994
2 51987  53.2178  31.4733 0001340 107.6368 252.4770 15.08843663 63930
STARLINK-3640           
1 51988U 22025AJ  23123.99852341 -.00000205  00000+0  52175-5 0  9996
2 51988  53.2173  30.9607 0001027 103.4661 256.6446 15.08840719 65063
STARLINK-3642           
1 51989U 22025AK  23124.01323638 -.00000195  00000+0  58512-5 0  9992
2 51989  53.2188  30.8966 0000922  92.7449 267.3648 15.08847379 65055
STARLINK-3657           
1 51990U 22025AL  23123.91572334 -.00000365  00000+0 -48396-5 0  9990
2 51990  53.2175  11.3356 0001234  97.8133 262.2999 15.08838249 64219
STARLINK-3652           
1 51991U 22025AM  23123.93964347  .00004488  00000+0  30000-3 0  9991
2 51991  53.2168  31.2265 0001354  93.2569 266.8578 15.08829782 63942
STARLINK-3643           
1 51992U 22025AN  23123.83844027 -.00000678  00000+0 -24502-4 0  9993
2 51992  53.2183  11.6837 0000921 120.2737 239.8346 15.08848658 65324
STARLINK-3648           
1 51993U 22025AP  23124.06108341  .00000526  00000+0  51104-4 0  9990
2 51993  53.2182  30.6814 0000961  78.4634 281.6466 15.08839749 65075
STARLINK-3647           
1 51994U 22025AQ  23123.90100133  .00000049  00000+0  21181-4 0  9996
2 51994  53.2177  11.3990 0000915 103.2779 256.8315 15.08838408 63792
STARLINK-3636           
1 51995U 22025AR  23124.04451937  .00002155  00000+0  15339-3 0  9991
2 51995  53.2163  10.7609 0001098  87.8126 272.2991 15.08847291 65327
STARLINK-3538           
1 51996U 22025AS  23123.89734860 -.00008288  00000+0 -50377-3 0  9999
2 51996  53.2181  11.4175 0001464 105.5705 254.5449 15.08801844 63796
